IONOSFERA-M 2           
1 61736U 24199B   26164.92277589  .00000064  00000+0  47970-4 0  9996
2 61736  98.7176  38.0400 0001186  41.9650 318.1619 14.22756991130367
PRSC-EO1                
1 62725U 25012A   26164.96096409  .00007591  00000+0  37935-3 0  9995
2 62725  97.4232 237.4837 0004304 265.6929  94.3813 15.17732338 77704
BIOMASS                 
1 63772U 25090A   26164.76074839  .00000946  00000+0  17531-3 0  9992
2 63772  98.0742 352.1276 0001352  91.2938 268.8421 14.67538557 60183
GOSAT-GW (IBUKI GW)     
1 64694U 25141A   26164.98561854  .00000573  00000+0  10946-3 0  9994
2 64694  98.0567 102.3545 0001439  85.4382 274.6987 14.67551487 51370
IONOSFERA-M 3           
1 64876U 25155A   26164.93754896  .00000037  00000+0  36658-4 0  9990
2 64876  98.6023 126.9244 0000813 163.1034 197.0171 14.21485986 45945
IONOSFERA-M 4           
1 64877U 25155B   26164.97239578  .00000039  00000+0  37208-4 0  9994
2 64877  98.6030 126.8757 0000939 120.6401 239.4870 14.21488176 45948
MICROCARB               
1 64899U 25156A   26164.75170655  .00000466  00000+0  81536-4 0  9992
2 64899  97.9831 241.9503 0014983 284.2888  75.6656 14.72322345 47463
CO3D 3                  
1 64900U 25156B   26164.89649299  .00004735  00000+0  22174-3 0  9990
2 64900  97.4334 243.6365 0001303 130.6388 229.4961 15.20197672 49035
CO3D 4                  
1 64901U 25156C   26164.89664531  .00000259  00000+0  15074-4 0  9996
2 64901  97.4331 243.6370 0000425  10.1346 349.9898 15.20198173 49033
CO3D 2                  
1 64902U 25156D   26164.92912344  .00004694  00000+0  21988-3 0  9996
2 64902  97.4336 243.5675 0001470 106.8590 253.2807 15.20195092 49035
CO3D 1                  
1 64903U 25156E   26164.92927396  .00005281  00000+0  24697-3 0  9993
2 64903  97.4336 243.5679 0001259 112.0514 248.0855 15.20194197 49030
PRSC-S1                 
1 65055U 25164A   26164.88277001  .00005226  00000+0  35972-3 0  9994
2 65055  41.1313 306.4217 0007078 323.8045  36.2289 15.06431581 47933
SENTINEL-6B             
1 66514U 25264A   26164.65049055 -.00000055  00000+0  24972-4 0  9992
2 66514  66.0391 142.5242 0008040 269.2518  90.7576 12.80929959 26718
CAS500-3                
1 66655U 25274F   26164.78644019  .00001159  00000+0  13115-3 0  9995
2 66655  97.7447  92.9148 0006605 118.9837 241.2043 14.88313844 29646
CSG-3                   
1 67304U 26001A   26164.95852836  .00000313  00000+0  45902-4 0  9994
2 67304  97.8885 348.6071 0001338  93.9909 266.1457 14.82151847 23984
PRSC-E03                
1 68835U 26092A   26164.87445163  .00002576  00000+0  17758-3 0  9996
2 68835  38.0000 109.2143 0004324 339.0654  20.9930 15.06653291  7453
CAS500-2                
1 69013U 26100AK  26164.73023651  .00006991  00000+0  32199-3 0  9995
2 69013  97.4088  62.6452 0010951  45.6263 314.5868 15.20553001  6287
