OBJECT_NAME,OBJECT_ID,EPOCH,MEAN_MOTION,ECCENTRICITY,INCLINATION,RA_OF_ASC_NODE,ARG_OF_PERICENTER,MEAN_ANOMALY,EPHEMERIS_TYPE,CLASSIFICATION_TYPE,NORAD_CAT_ID,ELEMENT_SET_NO,REV_AT_EPOCH,BSTAR,MEAN_MOTION_DOT,MEAN_MOTION_DDOT
IONOSFERA-M 2,2024-199B,2026-06-13T22:08:47.836896,14.22756991,.00011866,98.7176,38.0400,41.9650,318.1619,0,U,61736,999,13036,.47969767E-4,.64E-6,0
PRSC-EO1,2025-012A,2026-06-13T23:03:47.297376,15.17732338,.00043047,97.4232,237.4837,265.6929,94.3813,0,U,62725,999,7770,.37934932E-3,.7591E-4,0
BIOMASS,2025-090A,2026-06-13T18:15:28.660896,14.67538557,.00013527,98.0742,352.1276,91.2938,268.8421,0,U,63772,999,6018,.17530702E-3,.946E-5,0
GOSAT-GW (IBUKI GW),2025-141A,2026-06-13T23:39:17.441856,14.67551487,.00014396,98.0567,102.3545,85.4382,274.6987,0,U,64694,999,5137,.10946428E-3,.573E-5,0
IONOSFERA-M 3,2025-155A,2026-06-13T22:30:04.230144,14.21485986,.00008136,98.6023,126.9244,163.1034,197.0171,0,U,64876,999,4594,.36657647E-4,.37E-6,0
IONOSFERA-M 4,2025-155B,2026-06-13T23:20:14.995392,14.21488176,.00009396,98.6030,126.8757,120.6401,239.4870,0,U,64877,999,4594,.37207997E-4,.39E-6,0
MICROCARB,2025-156A,2026-06-13T18:02:27.445920,14.72322345,.00149839,97.9831,241.9503,284.2888,75.6656,0,U,64899,999,4746,.81536091E-4,.466E-5,0
CO3D 3,2025-156B,2026-06-13T21:30:56.994336,15.20197672,.00013036,97.4334,243.6365,130.6388,229.4961,0,U,64900,999,4903,.22173698E-3,.4735E-4,0
CO3D 4,2025-156C,2026-06-13T21:31:10.154784,15.20198173,.00004255,97.4331,243.6370,10.1346,349.9898,0,U,64901,999,4903,.15073589E-4,.259E-5,0
CO3D 2,2025-156D,2026-06-13T22:17:56.265216,15.20195092,.00014702,97.4336,243.5675,106.8590,253.2807,0,U,64902,999,4903,.21987581E-3,.4694E-4,0
CO3D 1,2025-156E,2026-06-13T22:18:09.270144,15.20194197,.0001259,97.4336,243.5679,112.0514,248.0855,0,U,64903,999,4903,.24697372E-3,.5281E-4,0
PRSC-S1,2025-164A,2026-06-13T21:11:11.328864,15.06431581,.00070783,41.1313,306.4217,323.8045,36.2289,0,U,65055,999,4793,.35972378E-3,.5226E-4,0
SENTINEL-6B,2025-264A,2026-06-13T15:36:42.383520,12.80929959,.00080409,66.0391,142.5242,269.2518,90.7576,0,U,66514,999,2671,.24972134E-4,-.55E-6,0
CAS500-3,2025-274F,2026-06-13T18:52:28.432416,14.88313844,.00066054,97.7447,92.9148,118.9837,241.2043,0,U,66655,999,2964,.13114686E-3,.1159E-4,0
CSG-3,2026-001A,2026-06-13T23:00:16.850304,14.82151847,.00013386,97.8885,348.6071,93.9909,266.1457,0,U,67304,999,2398,.45902341E-4,.313E-5,0
PRSC-E03,2026-092A,2026-06-13T20:59:12.620832,15.06653291,.00043242,38.0000,109.2143,339.0654,20.9930,0,U,68835,999,745,.17758475E-3,.2576E-4,0
CAS500-2,2026-100AK,2026-06-13T17:31:32.434464,15.20553001,.00109518,97.4088,62.6452,45.6263,314.5868,0,U,69013,999,628,.32198965E-3,.6991E-4,0
